CCSDS_OMM_VERS = 2.0
CREATION_DATE  = 
ORIGINATOR     = 

OBJECT_NAME    = UNKNOWN
OBJECT_ID      = 
CENTER_NAME    = EARTH
REF_FRAME      = TEME
TIME_SYSTEM    = UTC
MEAN_ELEMENT_THEORY = SGP/SGP4

EPOCH          = 2025-11-25T10:40:52.663872
MEAN_MOTION    = 13.91563479
ECCENTRICITY   = .0227475
INCLINATION    = 98.7801
RA_OF_ASC_NODE = 203.4966
ARG_OF_PERICENTER = 173.8001
MEAN_ANOMALY   = 186.6061

EPHEMERIS_TYPE = 0
CLASSIFICATION_TYPE = U
NORAD_CAT_ID   = 89213
ELEMENT_SET_NO = 999
REV_AT_EPOCH   = 45026
BSTAR          = .43732E-3
MEAN_MOTION_DOT = .644E-5
MEAN_MOTION_DDOT = 0

CCSDS_OMM_VERS = 2.0
CREATION_DATE  = 
ORIGINATOR     = 

OBJECT_NAME    = UNKNOWN
OBJECT_ID      = 
CENTER_NAME    = EARTH
REF_FRAME      = TEME
TIME_SYSTEM    = UTC
MEAN_ELEMENT_THEORY = SGP/SGP4

EPOCH          = 2025-11-25T07:02:48.527808
MEAN_MOTION    = 9.24297289
ECCENTRICITY   = .2836679
INCLINATION    = 62.4788
RA_OF_ASC_NODE = 26.2267
ARG_OF_PERICENTER = 99.0772
MEAN_ANOMALY   = 293.7739

EPHEMERIS_TYPE = 0
CLASSIFICATION_TYPE = U
NORAD_CAT_ID   = 89251
ELEMENT_SET_NO = 999
REV_AT_EPOCH   = 37157
BSTAR          = .68391E-2
MEAN_MOTION_DOT = .11738E-3
MEAN_MOTION_DDOT = 0

CCSDS_OMM_VERS = 2.0
CREATION_DATE  = 
ORIGINATOR     = 

OBJECT_NAME    = UNKNOWN
OBJECT_ID      = 
CENTER_NAME    = EARTH
REF_FRAME      = TEME
TIME_SYSTEM    = UTC
MEAN_ELEMENT_THEORY = SGP/SGP4

EPOCH          = 2025-11-17T17:22:22.494144
MEAN_MOTION    = 14.43045649
ECCENTRICITY   = .0011828
INCLINATION    = 98.1529
RA_OF_ASC_NODE = 317.2144
ARG_OF_PERICENTER = 232.5328
MEAN_ANOMALY   = 127.4788

EPHEMERIS_TYPE = 0
CLASSIFICATION_TYPE = U
NORAD_CAT_ID   = 89261
ELEMENT_SET_NO = 999
REV_AT_EPOCH   = 53020
BSTAR          = .48611E-3
MEAN_MOTION_DOT = .1589E-4
MEAN_MOTION_DDOT = 0

CCSDS_OMM_VERS = 2.0
CREATION_DATE  = 
ORIGINATOR     = 

OBJECT_NAME    = UNKNOWN
OBJECT_ID      = 
CENTER_NAME    = EARTH
REF_FRAME      = TEME
TIME_SYSTEM    = UTC
MEAN_ELEMENT_THEORY = SGP/SGP4

EPOCH          = 2025-11-24T16:19:43.143744
MEAN_MOTION    = 9.02773008
ECCENTRICITY   = .2843763
INCLINATION    = 84.3545
RA_OF_ASC_NODE = 108.7776
ARG_OF_PERICENTER = 9.0318
MEAN_ANOMALY   = 2.5748

EPHEMERIS_TYPE = 0
CLASSIFICATION_TYPE = U
NORAD_CAT_ID   = 89304
ELEMENT_SET_NO = 999
REV_AT_EPOCH   = 43677
BSTAR          = .13451E-1
MEAN_MOTION_DOT = .10315E-3
MEAN_MOTION_DDOT = 0

CCSDS_OMM_VERS = 2.0
CREATION_DATE  = 
ORIGINATOR     = 

OBJECT_NAME    = UNKNOWN
OBJECT_ID      = 
CENTER_NAME    = EARTH
REF_FRAME      = TEME
TIME_SYSTEM    = UTC
MEAN_ELEMENT_THEORY = SGP/SGP4

EPOCH          = 2025-11-25T02:03:07.707168
MEAN_MOTION    = 12.96235090
ECCENTRICITY   = .0028143
INCLINATION    = 90.2461
RA_OF_ASC_NODE = 6.9595
ARG_OF_PERICENTER = 313.7921
MEAN_ANOMALY   = 46.0871

EPHEMERIS_TYPE = 0
CLASSIFICATION_TYPE = U
NORAD_CAT_ID   = 89349
ELEMENT_SET_NO = 999
REV_AT_EPOCH   = 47646
BSTAR          = .11964E-2
MEAN_MOTION_DOT = .349E-5
MEAN_MOTION_DDOT = 0

CCSDS_OMM_VERS = 2.0
CREATION_DATE  = 
ORIGINATOR     = 

OBJECT_NAME    = UNKNOWN
OBJECT_ID      = 
CENTER_NAME    = EARTH
REF_FRAME      = TEME
TIME_SYSTEM    = UTC
MEAN_ELEMENT_THEORY = SGP/SGP4

EPOCH          = 2025-11-24T19:06:56.236608
MEAN_MOTION    = 13.62506717
ECCENTRICITY   = .0044822
INCLINATION    = 100.4848
RA_OF_ASC_NODE = 342.7353
ARG_OF_PERICENTER = 173.3748
MEAN_ANOMALY   = 186.7992

EPHEMERIS_TYPE = 0
CLASSIFICATION_TYPE = U
NORAD_CAT_ID   = 89379
ELEMENT_SET_NO = 999
REV_AT_EPOCH   = 57833
BSTAR          = .60396E-2
MEAN_MOTION_DOT = .4676E-4
MEAN_MOTION_DDOT = 0

CCSDS_OMM_VERS = 2.0
CREATION_DATE  = 
ORIGINATOR     = 

OBJECT_NAME    = UNKNOWN
OBJECT_ID      = 
CENTER_NAME    = EARTH
REF_FRAME      = TEME
TIME_SYSTEM    = UTC
MEAN_ELEMENT_THEORY = SGP/SGP4

EPOCH          = 2025-11-13T08:39:33.867360
MEAN_MOTION    = 12.01508003
ECCENTRICITY   = .0220207
INCLINATION    = 102.3610
RA_OF_ASC_NODE = 287.2462
ARG_OF_PERICENTER = 174.5270
MEAN_ANOMALY   = 350.2300

EPHEMERIS_TYPE = 0
CLASSIFICATION_TYPE = U
NORAD_CAT_ID   = 89395
ELEMENT_SET_NO = 999
REV_AT_EPOCH   = 52121
BSTAR          = .44311E-2
MEAN_MOTION_DOT = .35E-5
MEAN_MOTION_DDOT = 0

CCSDS_OMM_VERS = 2.0
CREATION_DATE  = 
ORIGINATOR     = 

OBJECT_NAME    = UNKNOWN
OBJECT_ID      = 
CENTER_NAME    = EARTH
REF_FRAME      = TEME
TIME_SYSTEM    = UTC
MEAN_ELEMENT_THEORY = SGP/SGP4

EPOCH          = 2025-11-24T20:55:00.707808
MEAN_MOTION    = 12.98725186
ECCENTRICITY   = .0026986
INCLINATION    = 90.2482
RA_OF_ASC_NODE = 5.4037
ARG_OF_PERICENTER = 261.4328
MEAN_ANOMALY   = 283.3253

EPHEMERIS_TYPE = 0
CLASSIFICATION_TYPE = U
NORAD_CAT_ID   = 89403
ELEMENT_SET_NO = 999
REV_AT_EPOCH   = 47550
BSTAR          = -.26557E-3
MEAN_MOTION_DOT = -.71E-6
MEAN_MOTION_DDOT = 0

CCSDS_OMM_VERS = 2.0
CREATION_DATE  = 
ORIGINATOR     = 

OBJECT_NAME    = UNKNOWN
OBJECT_ID      = 
CENTER_NAME    = EARTH
REF_FRAME      = TEME
TIME_SYSTEM    = UTC
MEAN_ELEMENT_THEORY = SGP/SGP4

EPOCH          = 2025-11-25T14:21:34.258752
MEAN_MOTION    = 9.13151594
ECCENTRICITY   = .2858518
INCLINATION    = 84.1048
RA_OF_ASC_NODE = 159.6232
ARG_OF_PERICENTER = 49.3069
MEAN_ANOMALY   = 332.3328

EPHEMERIS_TYPE = 0
CLASSIFICATION_TYPE = U
NORAD_CAT_ID   = 89484
ELEMENT_SET_NO = 999
REV_AT_EPOCH   = 35387
BSTAR          = .38511E-1
MEAN_MOTION_DOT = .49113E-3
MEAN_MOTION_DDOT = 0

CCSDS_OMM_VERS = 2.0
CREATION_DATE  = 
ORIGINATOR     = 

OBJECT_NAME    = UNKNOWN
OBJECT_ID      = 
CENTER_NAME    = EARTH
REF_FRAME      = TEME
TIME_SYSTEM    = UTC
MEAN_ELEMENT_THEORY = SGP/SGP4

EPOCH          = 2025-11-24T15:17:57.235200
MEAN_MOTION    = 14.16124158
ECCENTRICITY   = .0082174
INCLINATION    = 99.0282
RA_OF_ASC_NODE = 37.2604
ARG_OF_PERICENTER = 92.3601
MEAN_ANOMALY   = 268.6984

EPHEMERIS_TYPE = 0
CLASSIFICATION_TYPE = U
NORAD_CAT_ID   = 89493
ELEMENT_SET_NO = 999
REV_AT_EPOCH   = 46138
BSTAR          = .15383E-2
MEAN_MOTION_DOT = .3098E-4
MEAN_MOTION_DDOT = 0

CCSDS_OMM_VERS = 2.0
CREATION_DATE  = 
ORIGINATOR     = 

OBJECT_NAME    = UNKNOWN
OBJECT_ID      = 
CENTER_NAME    = EARTH
REF_FRAME      = TEME
TIME_SYSTEM    = UTC
MEAN_ELEMENT_THEORY = SGP/SGP4

EPOCH          = 2025-11-24T11:29:45.244032
MEAN_MOTION    = 14.16055174
ECCENTRICITY   = .0082909
INCLINATION    = 99.0281
RA_OF_ASC_NODE = 36.9861
ARG_OF_PERICENTER = 92.9193
MEAN_ANOMALY   = 268.1472

EPHEMERIS_TYPE = 0
CLASSIFICATION_TYPE = U
NORAD_CAT_ID   = 89494
ELEMENT_SET_NO = 999
REV_AT_EPOCH   = 46121
BSTAR          = .15984E-2
MEAN_MOTION_DOT = .3219E-4
MEAN_MOTION_DDOT = 0

