UNKNOWN                 
1 89213U          25329.44505398  .00000644  00000+0  43732-3 0  9997
2 89213  98.7801 203.4966 0227475 173.8001 186.6061 13.91563479450268
UNKNOWN                 
1 89251U          25329.29361722  .00011738  00000+0  68391-2 0  9996
2 89251  62.4788  26.2267 2836679  99.0772 293.7739  9.24297289371577
UNKNOWN                 
1 89261U          25321.72387146  .00001589  00000+0  48611-3 0  9992
2 89261  98.1529 317.2144 0011828 232.5328 127.4788 14.43045649530206
UNKNOWN                 
1 89304U          25328.68036046  .00010315  00000+0  13451-1 0  9991
2 89304  84.3545 108.7776 2843763   9.0318   2.5748  9.02773008436774
UNKNOWN                 
1 89349U          25329.08550587  .00000349  00000+0  11964-2 0  9990
2 89349  90.2461   6.9595 0028143 313.7921  46.0871 12.96235090476465
UNKNOWN                 
1 89379U          25328.79648422  .00004676  00000+0  60396-2 0  9996
2 89379 100.4848 342.7353 0044822 173.3748 186.7992 13.62506717578339
UNKNOWN                 
1 89395U          25317.36080865  .00000350  00000+0  44311-2 0  9990
2 89395 102.3610 287.2462 0220207 174.5270 350.2300 12.01508003521213
UNKNOWN                 
1 89403U          25328.87153597 -.00000071  00000+0 -26557-3 0  9996
2 89403  90.2482   5.4037 0026986 261.4328 283.3253 12.98725186475503
UNKNOWN                 
1 89484U          25329.59831318  .00049113  00000+0  38511-1 0  9998
2 89484  84.1048 159.6232 2858518  49.3069 332.3328  9.13151594353874
UNKNOWN                 
1 89493U          25328.63746800  .00003098  00000+0  15383-2 0  9998
2 89493  99.0282  37.2604 0082174  92.3601 268.6984 14.16124158461388
UNKNOWN                 
1 89494U          25328.47899588  .00003219  00000+0  15984-2 0  9995
2 89494  99.0281  36.9861 0082909  92.9193 268.1472 14.16055174461217
